OBJECT_NAME,OBJECT_ID,EPOCH,MEAN_MOTION,ECCENTRICITY,INCLINATION,RA_OF_ASC_NODE,ARG_OF_PERICENTER,MEAN_ANOMALY,EPHEMERIS_TYPE,CLASSIFICATION_TYPE,NORAD_CAT_ID,ELEMENT_SET_NO,REV_AT_EPOCH,BSTAR,MEAN_MOTION_DOT,MEAN_MOTION_DDOT
KUIPER-00610,2026-118AB,2026-06-04T22:00:05.000256,15.38028175,.0003014,51.8710,112.5602,96.8328,326.1510,0,U,69292,999,150,.61959495E-3,.23228E-3,0
KUIPER-00613,2026-118AC,2026-06-04T22:00:05.000256,15.35620948,.00105109,51.8618,112.6597,142.2393,237.6886,0,U,69293,999,130,.68699467E-3,.23887E-3,0
KUIPER-00618,2026-118AD,2026-06-04T22:00:05.000256,15.38425633,.00020324,51.8710,112.5419,60.2175,11.2384,0,U,69294,999,130,.64054551E-3,.24346E-3,0
KUIPER-00620,2026-118AE,2026-06-04T22:00:05.000256,15.38123205,.00030353,51.8705,112.5580,85.1632,339.7107,0,U,69295,999,204,.62231945E-3,.23406E-3,0
STARLINK-37501,2026-119A,2026-06-04T22:00:05.000256,15.90992794,.0001682,97.2840,181.0310,100.9308,152.6291,0,U,69296,999,191,-.7566354E-2,-.2339162E-1,.145276E-2
STARLINK-37496,2026-119B,2026-06-04T22:00:05.000256,15.91219380,.0001606,97.2839,181.0318,94.0633,161.4539,0,U,69297,999,191,-.73778769E-2,-.2307586E-1,.14187707E-2
STARLINK-37519,2026-119C,2026-06-04T22:00:05.000256,15.91631688,.00015416,97.2839,181.0341,95.5302,165.1819,0,U,69298,999,191,-.72426454E-2,-.2313364E-1,.14319005E-2
STARLINK-37455,2026-119D,2026-06-04T22:00:05.000256,15.91441634,.00015247,97.2837,181.0326,93.3072,164.4047,0,U,69299,999,191,-.72375347E-2,-.2289619E-1,.14009859E-2
STARLINK-37456,2026-119E,2026-06-04T22:00:05.000256,15.91843043,.0001552,97.2837,181.0346,97.0389,165.5018,0,U,69300,999,191,-.70352197E-2,-.2271952E-1,.13862849E-2
STARLINK-37630,2026-119F,2026-06-04T22:00:05.000256,15.92055612,.00015982,97.2837,181.0357,98.6867,165.9748,0,U,69301,999,207,-.69109864E-2,-.2256476E-1,.13713834E-2
STARLINK-37804,2026-119G,2026-06-04T22:00:05.000256,15.92267537,.00015931,97.2837,181.0363,97.8777,168.9793,0,U,69302,999,207,-.6814469E-2,-.2249417E-1,.13662916E-2
STARLINK-37730,2026-119H,2026-06-04T22:00:05.000256,15.92464817,.00014975,97.2837,181.0374,93.5204,175.4785,0,U,69303,999,207,-.66725886E-2,-.2225308E-1,.13412696E-2
STARLINK-37731,2026-119J,2026-06-04T22:00:05.000256,15.92672700,.00014221,97.2835,181.0379,90.2021,180.6928,0,U,69304,999,207,-.65615105E-2,-.2212008E-1,.13289663E-2
STARLINK-37734,2026-119K,2026-06-04T22:00:05.000256,15.92872838,.00013765,97.2838,181.0388,90.0073,183.0683,0,U,69305,999,207,-.6467507E-2,-.2203113E-1,.13216284E-2
STARLINK-37701,2026-119L,2026-06-04T22:00:05.000256,15.93068157,.00013933,97.2836,181.0393,87.2904,187.4455,0,U,69306,999,207,-.63302436E-2,-.2178585E-1,.12964259E-2
STARLINK-37732,2026-119M,2026-06-04T22:00:05.000256,15.93264519,.00014065,97.2835,181.0404,87.0501,189.6745,0,U,69307,999,207,-.62341877E-2,-.2167675E-1,.12868029E-2
STARLINK-37689,2026-119N,2026-06-04T22:00:05.000256,15.93449716,.00013833,97.2832,181.0410,79.6829,198.7780,0,U,69308,999,207,-.61053515E-2,-.214372E-1,.12623787E-2
STARLINK-37619,2026-119P,2026-06-04T22:00:05.000256,15.93638592,.00013447,97.2834,181.0418,85.6265,194.6989,0,U,69309,999,207,-.60083214E-2,-.21307E-1,.12503793E-2
STARLINK-37794,2026-119Q,2026-06-04T22:00:05.000256,15.93819090,.00012745,97.2834,181.0426,81.8827,200.1600,0,U,69310,999,207,-.58933858E-2,-.210999E-1,.12297738E-2
STARLINK-37795,2026-119R,2026-06-04T22:00:05.000256,15.94002520,.0001331,97.2833,181.0431,82.4473,201.4874,0,U,69311,999,207,-.58062844E-2,-.2099043E-1,.12201024E-2
STARLINK-37790,2026-119S,2026-06-04T22:00:05.000256,15.94184643,.00013552,97.2832,181.0439,80.9287,204.7741,0,U,69312,999,207,-.57270136E-2,-.2090408E-1,.12129825E-2
STARLINK-37676,2026-119T,2026-06-04T22:00:05.000256,15.94362200,.00013171,97.2833,181.0448,84.0702,203.5024,0,U,69313,999,207,-.5642303E-2,-.2078961E-1,.12027211E-2
STARLINK-37617,2026-119U,2026-06-04T22:00:05.000256,15.94535058,.0001345,97.2832,181.0453,83.8247,205.7892,0,U,69314,999,207,-.55555232E-2,-.2065905E-1,.11906671E-2
STARLINK-37627,2026-119V,2026-06-04T22:00:05.000256,15.94709325,.00012125,97.2832,181.0464,83.7719,207.5235,0,U,69315,999,207,-.54732697E-2,-.2054263E-1,.11802133E-2
STARLINK-37738,2026-119W,2026-06-04T22:00:05.000256,15.94878649,.00012746,97.2832,181.0471,86.7145,206.3781,0,U,69316,999,207,-.53844391E-2,-.2039326E-1,.11661522E-2
STARLINK-37799,2026-119X,2026-06-04T22:00:05.000256,15.95051830,.00012463,97.2831,181.0478,78.6554,216.3373,0,U,69317,999,202,-.53254696E-2,-.2035666E-1,.11643926E-2
STARLINK-37802,2026-119Y,2026-06-04T22:00:05.000256,15.95216243,.00011955,97.2833,181.0489,87.3138,209.4465,0,U,69318,999,207,-.52421593E-2,-.2021576E-1,.11512425E-2
STARLINK-37803,2026-119Z,2026-06-04T22:00:05.000256,15.95371836,.000125,97.2834,181.0495,85.2089,212.9751,0,U,69319,999,202,-.51444464E-2,-.2000672E-1,.11307427E-2
GUOWANG TEST OBJECT A,2026-120A,2026-06-04T09:49:53.453280,15.38744074,.00092429,54.9977,85.2797,281.4390,78.5600,0,U,69320,999,72,.29451942E-3,.11071E-3,0
