KUIPER-00610            
1 69292U 26118AB  26155.91672454  .00023228  00000+0  61959-3 0  9992
2 69292  51.8710 112.5602 0003014  96.8328 326.1510 15.38028175  1507
KUIPER-00613            
1 69293U 26118AC  26155.91672454  .00023887  00000+0  68699-3 0  9992
2 69293  51.8618 112.6597 0010510 142.2393 237.6886 15.35620948  1309
KUIPER-00618            
1 69294U 26118AD  26155.91672454  .00024346  00000+0  64055-3 0  9996
2 69294  51.8710 112.5419 0002032  60.2175  11.2384 15.38425633  1308
KUIPER-00620            
1 69295U 26118AE  26155.91672454  .00023406  00000+0  62232-3 0  9998
2 69295  51.8705 112.5580 0003035  85.1632 339.7107 15.38123205  2043
STARLINK-37501          
1 69296U 26119A   26155.91672454 -.02339162  14528-2 -75664-2 0  9998
2 69296  97.2840 181.0310 0001682 100.9308 152.6291 15.90992794  1918
STARLINK-37496          
1 69297U 26119B   26155.91672454 -.02307586  14188-2 -73779-2 0  9991
2 69297  97.2839 181.0318 0001606  94.0633 161.4539 15.91219380  1912
STARLINK-37519          
1 69298U 26119C   26155.91672454 -.02313364  14319-2 -72426-2 0  9997
2 69298  97.2839 181.0341 0001541  95.5302 165.1819 15.91631688  1917
STARLINK-37455          
1 69299U 26119D   26155.91672454 -.02289619  14010-2 -72375-2 0  9994
2 69299  97.2837 181.0326 0001524  93.3072 164.4047 15.91441634  1915
STARLINK-37456          
1 69300U 26119E   26155.91672454 -.02271952  13863-2 -70352-2 0  9996
2 69300  97.2837 181.0346 0001552  97.0389 165.5018 15.91843043  1913
STARLINK-37630          
1 69301U 26119F   26155.91672454 -.02256476  13714-2 -69110-2 0  9996
2 69301  97.2837 181.0357 0001598  98.6867 165.9748 15.92055612  2074
STARLINK-37804          
1 69302U 26119G   26155.91672454 -.02249417  13663-2 -68145-2 0  9994
2 69302  97.2837 181.0363 0001593  97.8777 168.9793 15.92267537  2072
STARLINK-37730          
1 69303U 26119H   26155.91672454 -.02225308  13413-2 -66726-2 0  9994
2 69303  97.2837 181.0374 0001497  93.5204 175.4785 15.92464817  2070
STARLINK-37731          
1 69304U 26119J   26155.91672454 -.02212008  13290-2 -65615-2 0  9997
2 69304  97.2835 181.0379 0001422  90.2021 180.6928 15.92672700  2072
STARLINK-37734          
1 69305U 26119K   26155.91672454 -.02203113  13216-2 -64675-2 0  9998
2 69305  97.2838 181.0388 0001376  90.0073 183.0683 15.92872838  2078
STARLINK-37701          
1 69306U 26119L   26155.91672454 -.02178585  12964-2 -63302-2 0  9998
2 69306  97.2836 181.0393 0001393  87.2904 187.4455 15.93068157  2070
STARLINK-37732          
1 69307U 26119M   26155.91672454 -.02167675  12868-2 -62342-2 0  9993
2 69307  97.2835 181.0404 0001406  87.0501 189.6745 15.93264519  2075
STARLINK-37689          
1 69308U 26119N   26155.91672454 -.02143720  12624-2 -61054-2 0  9998
2 69308  97.2832 181.0410 0001383  79.6829 198.7780 15.93449716  2078
STARLINK-37619          
1 69309U 26119P   26155.91672454 -.02130700  12504-2 -60083-2 0  9991
2 69309  97.2834 181.0418 0001344  85.6265 194.6989 15.93638592  2075
STARLINK-37794          
1 69310U 26119Q   26155.91672454 -.02109990  12298-2 -58934-2 0  9992
2 69310  97.2834 181.0426 0001274  81.8827 200.1600 15.93819090  2077
STARLINK-37795          
1 69311U 26119R   26155.91672454 -.02099043  12201-2 -58063-2 0  9997
2 69311  97.2833 181.0431 0001331  82.4473 201.4874 15.94002520  2071
STARLINK-37790          
1 69312U 26119S   26155.91672454 -.02090408  12130-2 -57270-2 0  9994
2 69312  97.2832 181.0439 0001355  80.9287 204.7741 15.94184643  2077
STARLINK-37676          
1 69313U 26119T   26155.91672454 -.02078961  12027-2 -56423-2 0  9999
2 69313  97.2833 181.0448 0001317  84.0702 203.5024 15.94362200  2072
STARLINK-37617          
1 69314U 26119U   26155.91672454 -.02065905  11907-2 -55555-2 0  9995
2 69314  97.2832 181.0453 0001345  83.8247 205.7892 15.94535058  2070
STARLINK-37627          
1 69315U 26119V   26155.91672454 -.02054263  11802-2 -54733-2 0  9992
2 69315  97.2832 181.0464 0001212  83.7719 207.5235 15.94709325  2070
STARLINK-37738          
1 69316U 26119W   26155.91672454 -.02039326  11662-2 -53844-2 0  9992
2 69316  97.2832 181.0471 0001274  86.7145 206.3781 15.94878649  2072
STARLINK-37799          
1 69317U 26119X   26155.91672454 -.02035666  11644-2 -53255-2 0  9992
2 69317  97.2831 181.0478 0001246  78.6554 216.3373 15.95051830  2021
STARLINK-37802          
1 69318U 26119Y   26155.91672454 -.02021576  11512-2 -52422-2 0  9997
2 69318  97.2833 181.0489 0001195  87.3138 209.4465 15.95216243  2075
STARLINK-37803          
1 69319U 26119Z   26155.91672454 -.02000672  11307-2 -51444-2 0  9997
2 69319  97.2834 181.0495 0001250  85.2089 212.9751 15.95371836  2020
GUOWANG TEST OBJECT A   
1 69320U 26120A   26155.40964645  .00011071  00000+0  29452-3 0  9992
2 69320  54.9977  85.2797 0009242 281.4390  78.5600 15.38744074   723
